{
  "norad_id": 59928,
  "name": "STARLINK-31970",
  "history": [
    {
      "epoch": "2026-03-28T15:51:48.792096Z",
      "apogee_km": 483.75173098313644,
      "perigee_km": 482.30402519385916,
      "latitude_deg": -2.8607741367049157e-05,
      "longitude_deg": 161.3994402684234,
      "height_km": 482.8842428268728,
      "semi_major_axis_km": 6861.164878088497,
      "eccentricity": 0.0001055,
      "inclination_deg": 42.9969,
      "raan_deg": 225.431,
      "arg_perigee_deg": 263.6295,
      "mean_anomaly_deg": 96.4436,
      "mean_motion_rev_day": 15.27587086
    }
  ]
}