{"fetched_at":"2026-03-30T13:17:50Z","count":15418,"tles":[{"name":"STARLINK-31970","line1":"1 59928U 24106G   26087.66098139  .00003101  00000+0  12211-3 0  9995","line2":"2 59928  42.9969 225.4310 0001055 263.6295  96.4436 15.27587086103471","category":"Starlink"}]}